PROXIMA I               
1 43694U 18088E   22031.79935982  .00007312  00000+0  29774-3 0  9995
2 43694  85.0287  43.8940 0015529 257.0113 102.9396 15.24193338179148
PROXIMA II              
1 43696U 18088G   22031.79831402  .00007382  00000+0  30066-3 0  9992
2 43696  85.0288  43.9086 0015584 256.9712 102.9791 15.24186506179134
FACSAT-1                
1 43721U 18096C   22032.45408741  .00010604  00000+0  35227-3 0  9995
2 43721  97.3655 112.8894 0015762 174.0430 241.8348 15.31267075177133
CENTAURI-2              
1 43722U 18096D   22032.46482048  .00020644  00000+0  64388-3 0  9994
2 43722  97.3690 114.2845 0015209 171.0629 189.0887 15.33142246177201
INNOSAT-2               
1 43738U 18096V   22032.49981416  .00021250  00000+0  56271-3 0  9993
2 43738  97.3777 119.7454 0018597 167.5300 324.8040 15.38208961177548
SIRION PATHFINDER-2     
1 43759U 18099B   22032.46660392  .00001902  00000+0  17512-3 0  9990
2 43759  97.6387 102.7300 0014020   3.5104 356.6213 14.95827025172710
CORVUS BC4              
1 43767U 18099K   22032.50030244  .00001030  00000+0  98701-4 0  9993
2 43767  97.6351 101.4617 0011838   9.6636 350.4810 14.95238297172653
MOVE-II                 
1 43780U 18099Y   22031.86708123  .00004162  00000+0  37010-3 0  9998
2 43780  97.6422 102.5687 0013289  16.5272 343.6380 14.96566865172620
SPACEBEE-7              
1 43816U 18099BL  22032.12203923  .00003034  00000+0  27066-3 0  9993
2 43816  97.6433 103.5152 0012812 357.7059   2.4102 14.96655511172252
SPACEBEE-5              
1 43817U 18099BM  22032.42902971  .00007848  00000+0  65690-3 0  9998
2 43817  97.6577 105.9134 0012396 357.0138   3.1009 14.98661042172382
SPACEBEE-6              
1 43818U 18099BN  22032.41722522  .00004882  00000+0  42569-3 0  9995
2 43818  97.6483 104.4396 0012641 358.4341   1.6839 14.97255672172478
SHIELDS 1               
1 43850U 18104B   22031.77528293  .00003855  00000+0  16413-3 0  9993
2 43850  85.0318 142.8337 0016224  54.0168 306.2575 15.22514520173707
STF-1                   
1 43852U 18104D   22032.39497830  .00009406  00000+0  38579-3 0  9991
2 43852  85.0353 142.9917 0015284  64.1175 296.1642 15.23987926173806
ZACUBE-2                
1 43907U 18111AH  22032.46175258  .00002972  00000+0  11771-3 0  9991
2 43907  97.2097 283.6219 0019918 197.3796 337.2204 15.26002093172548
LUME 1                  
1 43908U 18111AJ  22032.44811384  .00009115  00000+0  33722-3 0  9993
2 43908  97.2105 284.6500 0018986 193.3535 166.7205 15.27734828172617
AOBA VELOX-IV           
1 43940U 19003J   22031.91078621  .00025027  00000+0  84836-3 0  9992
2 43940  97.1496  72.3978 0018904 275.7567  84.1519 15.30362059169205
MOVE-IIB                
1 44398U 19038N   22031.93694039  .00006401  00000+0  34097-3 0  9996
2 44398  97.6105   0.5437 0021559 239.8524 120.0576 15.15368335142347
SONATE                  
1 44400U 19038Q   22032.16739607  .00002658  00000+0  15229-3 0  9993
2 44400  97.6202   0.3656 0022801 241.2223 118.6727 15.13286343142318
LUCKY-7                 
1 44406U 19038W   22031.90230780  .00005388  00000+0  29985-3 0  9995
2 44406  97.6217   0.4721 0022066 240.0157 119.8884 15.13872152142293
BEESAT 9                
1 44412U 19038AC  22031.85255148  .00008321  00000+0  45294-3 0  9992
2 44412  97.6192   0.5479 0019814 245.0161 114.9012 15.14529961142006
JAISAT-1                
1 44419U 19038F   22032.14559220  .00007528  00000+0  40482-3 0  9992
2 44419  97.6196   1.5706 0018763 241.0993 118.8356 15.15014633142406
DUCHIFAT-3              
1 44854U 19089C   22032.49331892  .00002127  00000+0  17376-3 0  9998
2 44854  36.9646 185.6900 0007250 205.9789 154.0631 15.00045728117500
EYESAT-NANO             
1 44877U 19092E   22031.46908883  .00009599  00000+0  45322-3 0  9995
2 44877  97.4594 217.1216 0013721 112.1747 248.0945 15.19562941117540
ORBITAL FACTORY 2 (OF-2)
1 45113U 19071C   22031.35769341  .00019587  00000+0  50769-3 0  9997
2 45113  51.6412  10.3620 0011495  42.1955 317.9912 15.38963848112228
M2 PATHFINDER           
1 45727U 20037E   22032.46002092  .00001495  00000+0  15415-3 0  9996
2 45727  97.7233 210.5115 0013786 123.8770 236.3775 14.91618412 86550
NETSAT-4                
1 46504U 20068U   22031.82781599  .00001806  00000+0  14013-3 0  9998
2 46504  97.7115 332.0854 0013550  72.5389 287.7315 15.02572703 73526
NETSAT-3                
1 46505U 20068V   22031.77322296  .00002425  00000+0  18687-3 0  9997
2 46505  97.7101 331.9694 0011781  77.1584 283.0957 15.02532991 73520
NETSAT-1                
1 46506U 20068W   22031.78533713  .00001845  00000+0  14358-3 0  9993
2 46506  97.7083 331.9321 0010289  80.6886 279.5510 15.02469042 73524
NETSAT-2                
1 46507U 20068X   22031.79237860  .00001080  00000+0  85965-4 0  9993
2 46507  97.7110 331.9412 0009817  83.8255 276.4100 15.02450208 73476
SPOC                    
1 46921U 98067RR  22032.21366190  .00055633  00000+0  58985-3 0  9998
2 46921  51.6374 269.3248 0002436 185.3799 174.7170 15.63545562 70513
BOBCAT-1                
1 46922U 98067RS  22032.35427177  .00153179  00000+0  11019-2 0  9997
2 46922  51.6379 260.5422 0003480 197.5967 162.4911 15.72598197 70607
NEUTRON-1               
1 46923U 98067RT  22032.37533990  .00060536  00000+0  64284-3 0  9998
2 46923  51.6381 268.9098 0002257 193.3771 166.7164 15.63470737 70561
DESCENT                 
1 46927U 98067RX  22032.37265089  .00062460  00000+0  65810-3 0  9997
2 46927  51.6382 268.8891 0002057 208.0838 152.0046 15.63657726 70474
SAI-1 NANOCONNECT-2     
1 47701U 21015C   22032.47296708 -.00000072  00000+0  00000+0 0  9998
2 47701  97.4416 110.3270 0010734 201.5374 158.6394 15.24233158 51481
WARP-01                 
1 47924U 98067SA  22032.38810382  .00112852  00000+0  11190-2 0  9990
2 47924  51.6366 274.9516 0004484 211.3653 148.7075 15.64932203 50451
RSP-01                  
1 47925U 98067SB  22032.37377756  .00066703  00000+0  76344-3 0  9999
2 47925  51.6395 277.1422 0003195 162.8042 197.3061 15.61500915 50403
TAUSAT-1                
1 47926U 98067SC  22032.36932318  .00110436  00000+0  10795-2 0  9990
2 47926  51.6385 274.0894 0004228 166.5862 193.5247 15.65302887 50430
TSURU                   
1 47927U 98067SD  22032.39347692  .00057758  00000+0  69586-3 0  9999
2 47927  51.6387 278.0198 0003093 159.9269 200.1847 15.60224710 50399
STARS-EC                
1 47928U 98067SE  22032.03678713  .00155163  00000+0  14500-2 0  9996
2 47928  51.6375 276.3678 0004958 213.3700 146.6983 15.66250745 50362
MAYA-2                  
1 47929U 98067SF  22032.38923991  .00057885  00000+0  69794-3 0  9994
2 47929  51.6389 277.9895 0003173 157.8757 202.2374 15.60202815 50359
HIROGARI (OPUSAT-II)    
1 47930U 98067SG  22032.37634307  .00139701  00000+0  12532-2 0  9990
2 47930  51.6366 273.3956 0004075 169.6232 190.4849 15.67324807 50454
GUARANISAT-1            
1 47931U 98067SH  22032.38374711  .00057838  00000+0  69508-3 0  9998
2 47931  51.6399 277.9623 0003187 157.6682 202.4450 15.60289497 50394
SMOG-1                  
1 47964U 21022AJ  22031.97215520  .00006409  00000+0  41786-3 0  9993
2 47964  97.5440 295.0437 0017612 242.2262 117.7181 15.08109943 46307
MMSATS-1                
1 47976U 98067SJ  22032.15321635  .00013192  00000+0  21390-3 0  9991
2 47976  51.6453 286.1188 0002594 191.0425 169.0520 15.53104211 49048
BCCSAT-1                
1 48041U 21022AK  22031.69195131  .00005591  00000+0  37209-3 0  9990
2 48041  97.5440 294.5329 0014196 240.5641 119.4170 15.07456159 46225
RAMSAT                  
1 48850U 98067SL  22031.93573031  .00048004  00000+0  68704-3 0  9997
2 48850  51.6405 286.1803 0003012 249.3770 110.6899 15.55708777 35996
SOAR                    
1 48851U 98067SM  22032.09764797  .00288724  00000+0  19004-2 0  9990
2 48851  51.6328 275.1875 0005788 199.7942 160.2833 15.74240617 36196
BD-28                   
1 48867U 98067SN  22032.40232382  .00043446  00000+0  60541-3 0  9995
2 48867  51.6393 283.2917 0001337 287.1095  72.9750 15.56479750 34826
MIR-SAT 1               
1 48868U 98067SP  22032.40503343  .00133206  00000+0  13624-2 0  9997
2 48868  51.6372 279.5566 0003005 203.6972 156.3885 15.64073020 34907
1998-067SR              
1 49272U 98067SR  22031.92393990  .00049436  00000+0  74873-3 0  9993
2 49272  51.6404 289.0862 0005797 161.3260 198.7945 15.54137363 18345
1998-067SS              
1 49273U 98067SS  22032.40756993  .00051210  00000+0  74639-3 0  9997
2 49273  51.6403 286.3167 0005918 161.3464 198.7745 15.55172464 18423
1998-067ST              
1 49274U 98067ST  22032.41172843  .00051700  00000+0  75562-3 0  9995
2 49274  51.6404 286.3444 0005839 160.6130 199.5084 15.55093317 18421
CUAVA-1                 
1 49275U 98067SU  22032.44231551  .00030147  00000+0  44867-3 0  9997
2 49275  51.6433 286.1815 0005764 164.3491   7.5154 15.54853914 18378
